{
    "links": {
        "self": "http://www.neowsapp.com/rest/v1/neo/54087866?api_key=iIulBulltgU6a56xZRHN4H3l9WmuAYTsLGpBGhQ2"
    },
    "id": "54087866",
    "neo_reference_id": "54087866",
    "name": "(2020 VK6)",
    "designation": "2020 VK6",
    "nasa_jpl_url": "http://ssd.jpl.nasa.gov/sbdb.cgi?sstr=54087866",
    "absolute_magnitude_h": 25.562,
    "estimated_diameter": {
        "kilometers": {
            "estimated_diameter_min": 0.0205189426,
            "estimated_diameter_max": 0.0458817505
        },
        "meters": {
            "estimated_diameter_min": 20.5189426015,
            "estimated_diameter_max": 45.8817504833
        },
        "miles": {
            "estimated_diameter_min": 0.0127498759,
            "estimated_diameter_max": 0.0285095892
        },
        "feet": {
            "estimated_diameter_min": 67.3193676446,
            "estimated_diameter_max": 150.5306822557
        }
    },
    "is_potentially_hazardous_asteroid": false,
    "close_approach_data": [
        {
            "close_approach_date": "2020-10-02",
            "close_approach_date_full": "2020-Oct-02 22:15",
            "epoch_date_close_approach": 1601676900000,
            "relative_velocity": {
                "kilometers_per_second": "17.958009789",
                "kilometers_per_hour": "64648.8352402225",
                "miles_per_hour": "40170.2720969038"
            },
            "miss_distance": {
                "astronomical": "0.0803141569",
                "lunar": "31.2422070341",
                "kilometers": "12014826.803085803",
                "miles": "7465667.1878499614"
            },
            "orbiting_body": "Mars"
        },
        {
            "close_approach_date": "2020-11-25",
            "close_approach_date_full": "2020-Nov-25 21:05",
            "epoch_date_close_approach": 1606338300000,
            "relative_velocity": {
                "kilometers_per_second": "11.1533098912",
                "kilometers_per_hour": "40151.9156084075",
                "miles_per_hour": "24948.8388956796"
            },
            "miss_distance": {
                "astronomical": "0.033562889",
                "lunar": "13.055963821",
                "kilometers": "5020936.70544643",
                "miles": "3119865.398683534"
            },
            "orbiting_body": "Earth"
        }
    ],
    "orbital_data": {
        "orbit_id": "9",
        "orbit_determination_date": "2020-11-26 05:21:10",
        "first_observation_date": "2020-11-12",
        "last_observation_date": "2020-11-26",
        "data_arc_in_days": 14,
        "observations_used": 97,
        "orbit_uncertainty": "7",
        "minimum_orbit_intersection": ".00557674",
        "jupiter_tisserand_invariant": "3.097",
        "epoch_osculation": "2459000.5",
        "eccentricity": ".6366494290257827",
        "semi_major_axis": "2.588286094591736",
        "inclination": "1.967380893930716",
        "ascending_node_longitude": "80.45765046516888",
        "orbital_period": "1520.956683250666",
        "perihelion_distance": ".9404552303145343",
        "perihelion_argument": "18.28913152930781",
        "aphelion_distance": "4.236116958868937",
        "perihelion_time": "2459204.677899739423",
        "mean_anomaly": "311.6724935590566",
        "mean_motion": ".2366931313458512",
        "equinox": "J2000",
        "orbit_class": {
            "orbit_class_type": "APO",
            "orbit_class_description": "Near-Earth asteroid orbits which cross the Earth’s orbit similar to that of 1862 Apollo",
            "orbit_class_range": "a (semi-major axis) > 1.0 AU; q (perihelion) < 1.017 AU"
        }
    },
    "is_sentry_object": false
}